[{"OBJECT_NAME":"STARLINK-34743","OBJECT_ID":"2025-158F","EPOCH":"2026-03-09T14:42:33.702912","MEAN_MOTION":15.05642869,"ECCENTRICITY":0.0002568,"INCLINATION":97.6015,"RA_OF_ASC_NODE":294.0011,"ARG_OF_PERICENTER":68.4044,"MEAN_ANOMALY":291.7456,"EPHEMERIS_TYPE":0,"CLASSIFICATION_TYPE":"U","NORAD_CAT_ID":64937,"ELEMENT_SET_NO":999,"REV_AT_EPOCH":3534,"BSTAR":0.00045516,"MEAN_MOTION_DOT":6.512e-5,"MEAN_MOTION_DDOT":0},{"OBJECT_NAME":"AZUR (GRS A)","OBJECT_ID":"1969-097A","EPOCH":"2026-03-09T21:41:10.048992","MEAN_MOTION":15.2598686,"ECCENTRICITY":0.02451425,"INCLINATION":102.6572,"RA_OF_ASC_NODE":142.7505,"ARG_OF_PERICENTER":125.1196,"MEAN_ANOMALY":237.3267,"EPHEMERIS_TYPE":0,"CLASSIFICATION_TYPE":"U","NORAD_CAT_ID":4221,"ELEMENT_SET_NO":999,"REV_AT_EPOCH":71023,"BSTAR":0.0010311441,"MEAN_MOTION_DOT":0.00065195,"MEAN_MOTION_DDOT":0}]
